HST                     
1 20580U 90037B   26068.15977042  .00009063  00000+0  30023-3 0  9999
2 20580  28.4717  43.6133 0001837 120.9992 239.0785 15.29473555773239
STARLINK-35382          
1 66019U 25232Q   26068.49441609  .00027547  00000+0  93907-3 0  9990
2 66019  53.1592 104.9559 0001326  86.2334 273.8819 15.30189182 23405
